[{"OBJECT_NAME":"KL-ALPHA B","OBJECT_ID":"2019-077B","EPOCH":"2026-03-09T22:53:20.656320","MEAN_MOTION":13.55991854,"ECCENTRICITY":0.00283835,"INCLINATION":88.9031,"RA_OF_ASC_NODE":231.1581,"ARG_OF_PERICENTER":80.1887,"MEAN_ANOMALY":280.247,"EPHEMERIS_TYPE":0,"CLASSIFICATION_TYPE":"U","NORAD_CAT_ID":44786,"ELEMENT_SET_NO":999,"REV_AT_EPOCH":31173,"BSTAR":0.00014525355,"MEAN_MOTION_DOT":1.14e-6,"MEAN_MOTION_DDOT":0},{"OBJECT_NAME":"SL-16 DEB","OBJECT_ID":"1987-041F","EPOCH":"2026-03-09T23:08:26.163744","MEAN_MOTION":13.73202182,"ECCENTRICITY":0.02086259,"INCLINATION":70.9915,"RA_OF_ASC_NODE":0.4345,"ARG_OF_PERICENTER":194.7761,"MEAN_ANOMALY":239.8876,"EPHEMERIS_TYPE":0,"CLASSIFICATION_TYPE":"U","NORAD_CAT_ID":18476,"ELEMENT_SET_NO":999,"REV_AT_EPOCH":94426,"BSTAR":0.00013682259,"MEAN_MOTION_DOT":1.05e-6,"MEAN_MOTION_DDOT":0}]
